SL-8 R/B                
1 15483U 85006B   26192.78986878  .00000122  00000+0  49189-4 0  9990
2 15483  74.0451  32.7882 0019284 276.4243 170.0509 14.37844095171866
SL-12 R/B(2)            
1 15772U 85042D   26192.58959052 -.00000032  00000+0  73076-5 0  9997
2 15772  71.1064 185.9592 0037243 291.4698 221.2304 14.22010501132006
SL-14 R/B               
1 15945U 85069B   26192.67106081  .00000230  00000+0  23065-4 0  9995
2 15945  82.5266 268.3407 0019837 138.3118 221.9615 14.86533689191255
SL-16 R/B               
1 16182U 85097B   26192.71246200 -.00000094  00000+0 -22872-4 0  9998
2 16182  71.0010 239.4454 0005493  58.5604  69.3976 14.16612198104799
SL-14 R/B               
1 16496U 86006B   26192.34440174  .00000270  00000+0  25885-4 0  9993
2 16496  82.5281 143.3807 0075182 221.7911 137.7551 14.86966515167583
COSMOS 1743             
1 16719U 86034A   26192.77873062  .00036677  00000+0  31279-3 0  9998
2 16719  82.5282 302.5411 0005298 186.5765 173.5428 15.69339007199643
SL-14 R/B               
1 16792U 86046B   26192.73600771  .00000246  00000+0  25398-4 0  9992
2 16792  82.4837 322.9786 0023223 174.3011 185.8474 14.85688935144828
SL-14 R/B               
1 16882U 86055B   26192.59349350  .00000242  00000+0  25041-4 0  9990
2 16882  82.5200  10.1829 0017330 283.3168 142.0749 14.85738838137766
AJISAI (EGS)            
1 16908U 86061A   26192.78240766 -.00000103  00000+0 -41211-4 0  9993
2 16908  50.0104  71.7657 0011100 243.1637 153.6896 12.44516677483453
SL-14 R/B               
1 17567U 87024B   26192.79164247  .00000249  00000+0  25445-4 0  9995
2 17567  82.5295 336.1227 0017537 205.3693 154.6665 14.86230122106564
COSMOS 1833             
1 17589U 87027A   26192.74296346  .00000118  00000+0  88859-4 0  9996
2 17589  70.9211  65.2565 0024004  14.2753 345.9041 14.13065534 27842
SL-16 R/B               
1 17590U 87027B   26192.77938898 -.00000123  00000+0 -37225-4 0  9995
2 17590  71.0029  15.0046 0007136 285.4094  74.6242 14.17173196 32929
SL-14 R/B               
1 17912U 87038B   26192.44635368  .00000255  00000+0  26589-4 0  9990
2 17912  82.5009 180.2209 0020721 113.7273 246.6120 14.85459955 97602
COSMOS 1844             
1 17973U 87041A   26192.29122266  .00000196  00000+0  12690-3 0  9993
2 17973  70.8995 133.4639 0031580 200.8116 159.1722 14.14579051 21064
SL-14 R/B               
1 18153U 87055B   26192.60344050  .00000211  00000+0  21463-4 0  9998
2 18153  82.4974 232.2118 0019672 327.5824  32.4182 14.85725736 88339
COSMOS 1867             
1 18187U 87060A   26192.72425201 -.00000078  00000+0  83140-5 0  9995
2 18187  65.0120 319.3403 0017070 282.0225  77.8946 14.31518264 37691
SL-14 R/B               
1 18749U 88001B   26192.74190398  .00000207  00000+0  21046-4 0  9992
2 18749  82.5124  78.6723 0017849 183.1888 176.9217 14.85625437 60444
COSMOS 1933             
1 18958U 88020A   26192.61216171  .00002115  00000+0  99919-4 0  9993
2 18958  82.5138 128.2461 0005740 116.7356 243.4466 15.18875682 69037
SL-3 R/B                
1 19046U 88032B   26192.71754208  .00002397  00000+0  11033-3 0  9996
2 19046  97.5267 175.7377 0026171 157.3995 202.8400 15.21015513 70952
SL-16 R/B               
1 19120U 88039B   26192.35981286 -.00000184  00000+0 -64358-4 0  9997
2 19120  71.0136 167.0445 0020800 155.6640 204.5472 14.19631645975934
COSMOS 1953             
1 19210U 88050A   26192.60744659  .00004478  00000+0  15134-3 0  9994
2 19210  82.5062  33.4006 0011791  51.5057 308.7239 15.30305195 56720
SL-8 R/B                
1 19257U 88053B   26192.62663785  .00000120  00000+0  47256-4 0  9991
2 19257  74.0461 244.0075 0019605  30.7363  83.3668 14.38977093994426
COSMOS 1975             
1 19573U 88093A   26192.49196667  .00003745  00000+0  12899-3 0  9991
2 19573  82.5191 353.2464 0012569  93.8606 266.4071 15.29633781 38322
SL-14 R/B               
1 19574U 88093B   26192.79870968  .00000199  00000+0  20027-4 0  9991
2 19574  82.5317 285.5403 0020313 351.7863 130.4842 14.85758797 19444
SL-16 R/B               
1 19650U 88102B   26192.58597958 -.00000242  00000+0 -98021-4 0  9999
2 19650  70.9984 250.8017 0014510 191.2197 168.8605 14.16167594944436
INTERCOSMOS 24          
1 20261U 89080A   26192.63628429  .00000259  00000+0  71690-4 0  9998
2 20261  82.6047  23.7317 1187390   5.2058 356.0179 12.59690763682401
SL-14 R/B               
1 20262U 89080C   26192.72233944  .00000050  00000+0  14601-4 0  9991
2 20262  82.5938  93.5439 1228575 261.2391  84.7965 12.50578047675653
DELTA 1 R/B             
1 20323U 89089B   26192.49759754  .00000161  00000+0  48239-4 0  9991
2 20323  97.0634  20.1654 0070642  91.4050 269.5242 14.50746420913687
ARIANE 40 R/B           
1 20443U 90005H   26192.78244095  .00000106  00000+0  47239-4 0  9991
2 20443  98.2947 249.6322 0010036 184.0946 176.0162 14.39939750910669
DELTA 2 R/B(1)          
1 20453U 90008B   26192.02366380  .00079035  00000+0  49420-3 0  9994
2 20453  35.6001  75.7228 0060888 336.6786  23.1198 15.72953494945451
