OBJECT_NAME,OBJECT_ID,EPOCH,MEAN_MOTION,ECCENTRICITY,INCLINATION,RA_OF_ASC_NODE,ARG_OF_PERICENTER,MEAN_ANOMALY,EPHEMERIS_TYPE,CLASSIFICATION_TYPE,NORAD_CAT_ID,ELEMENT_SET_NO,REV_AT_EPOCH,BSTAR,MEAN_MOTION_DOT,MEAN_MOTION_DDOT
SL-8 R/B,1985-006B,2026-07-11T18:57:24.662592,14.37844095,.00192844,74.0451,32.7882,276.4243,170.0509,0,U,15483,999,17186,.49188593E-4,.122E-5,0
SL-12 R/B(2),1985-042D,2026-07-11T14:09:00.620928,14.22010501,.00372437,71.1064,185.9592,291.4698,221.2304,0,U,15772,999,13200,.730757E-5,-.32E-6,0
SL-14 R/B,1985-069B,2026-07-11T16:06:19.653984,14.86533689,.00198374,82.5266,268.3407,138.3118,221.9615,0,U,15945,999,19125,.23064722E-4,.23E-5,0
SL-16 R/B,1985-097B,2026-07-11T17:05:56.716800,14.16612198,.00054937,71.0010,239.4454,58.5604,69.3976,0,U,16182,999,10479,-.22872486E-4,-.94E-6,0
SL-14 R/B,1986-006B,2026-07-11T08:15:56.310336,14.86966515,.00751823,82.5281,143.3807,221.7911,137.7551,0,U,16496,999,16758,.25885406E-4,.27E-5,0
COSMOS 1743,1986-034A,2026-07-11T18:41:22.325568,15.69339007,.00052985,82.5282,302.5411,186.5765,173.5428,0,U,16719,999,19964,.31278948E-3,.36677E-3,0
SL-14 R/B,1986-046B,2026-07-11T17:39:51.066144,14.85688935,.00232232,82.4837,322.9786,174.3011,185.8474,0,U,16792,999,14482,.25397784E-4,.246E-5,0
SL-14 R/B,1986-055B,2026-07-11T14:14:37.838400,14.85738838,.00173305,82.5200,10.1829,283.3168,142.0749,0,U,16882,999,13776,.25041061E-4,.242E-5,0
AJISAI (EGS),1986-061A,2026-07-11T18:46:40.021824,12.44516677,.00111006,50.0104,71.7657,243.1637,153.6896,0,U,16908,999,48345,-.41210613E-4,-.103E-5,0
SL-14 R/B,1987-024B,2026-07-11T18:59:57.909408,14.86230122,.00175375,82.5295,336.1227,205.3693,154.6665,0,U,17567,999,10656,.25445475E-4,.249E-5,0
COSMOS 1833,1987-027A,2026-07-11T17:49:52.042944,14.13065534,.00240041,70.9211,65.2565,14.2753,345.9041,0,U,17589,999,2784,.88859004E-4,.118E-5,0
SL-16 R/B,1987-027B,2026-07-11T18:42:19.207872,14.17173196,.00071363,71.0029,15.0046,285.4094,74.6242,0,U,17590,999,3292,-.3722499E-4,-.123E-5,0
SL-14 R/B,1987-038B,2026-07-11T10:42:44.957952,14.85459955,.00207215,82.5009,180.2209,113.7273,246.6120,0,U,17912,999,9760,.26588962E-4,.255E-5,0
COSMOS 1844,1987-041A,2026-07-11T06:59:21.637824,14.14579051,.00315809,70.8995,133.4639,200.8116,159.1722,0,U,17973,999,2106,.12690008E-3,.196E-5,0
SL-14 R/B,1987-055B,2026-07-11T14:28:57.259200,14.85725736,.00196723,82.4974,232.2118,327.5824,32.4182,0,U,18153,999,8833,.21462744E-4,.211E-5,0
COSMOS 1867,1987-060A,2026-07-11T17:22:55.373664,14.31518264,.00170703,65.0120,319.3403,282.0225,77.8946,0,U,18187,999,3769,.831397E-5,-.78E-6,0
SL-14 R/B,1988-001B,2026-07-11T17:48:20.503872,14.85625437,.00178493,82.5124,78.6723,183.1888,176.9217,0,U,18749,999,6044,.21045806E-4,.207E-5,0
COSMOS 1933,1988-020A,2026-07-11T14:41:30.771744,15.18875682,.00057409,82.5138,128.2461,116.7356,243.4466,0,U,18958,999,6903,.99918544E-4,.2115E-4,0
SL-3 R/B,1988-032B,2026-07-11T17:13:15.635712,15.21015513,.00261713,97.5267,175.7377,157.3995,202.8400,0,U,19046,999,7095,.11032763E-3,.2397E-4,0
SL-16 R/B,1988-039B,2026-07-11T08:38:07.831104,14.19631645,.00208005,71.0136,167.0445,155.6640,204.5472,0,U,19120,999,97593,-.64357511E-4,-.184E-5,0
COSMOS 1953,1988-050A,2026-07-11T14:34:43.385376,15.30305195,.0011791,82.5062,33.4006,51.5057,308.7239,0,U,19210,999,5672,.15134349E-3,.4478E-4,0
SL-8 R/B,1988-053B,2026-07-11T15:02:21.510240,14.38977093,.0019605,74.0461,244.0075,30.7363,83.3668,0,U,19257,999,99442,.47256002E-4,.12E-5,0
COSMOS 1975,1988-093A,2026-07-11T11:48:25.920288,15.29633781,.00125695,82.5191,353.2464,93.8606,266.4071,0,U,19573,999,3832,.12898526E-3,.3745E-4,0
SL-14 R/B,1988-093B,2026-07-11T19:10:08.516352,14.85758797,.00203132,82.5317,285.5403,351.7863,130.4842,0,U,19574,999,1944,.20027286E-4,.199E-5,0
SL-16 R/B,1988-102B,2026-07-11T14:03:48.635712,14.16167594,.00145101,70.9984,250.8017,191.2197,168.8605,0,U,19650,999,94443,-.98020569E-4,-.242E-5,0
INTERCOSMOS 24,1989-080A,2026-07-11T15:16:14.962656,12.59690763,.11873905,82.6047,23.7317,5.2058,356.0179,0,U,20261,999,68240,.71690402E-4,.259E-5,0
SL-14 R/B,1989-080C,2026-07-11T17:20:10.127616,12.50578047,.12285754,82.5938,93.5439,261.2391,84.7965,0,U,20262,999,67565,.14600918E-4,.5E-6,0
DELTA 1 R/B,1989-089B,2026-07-11T11:56:32.427456,14.50746420,.0070642,97.0634,20.1654,91.4050,269.5242,0,U,20323,999,91368,.4823933E-4,.161E-5,0
ARIANE 40 R/B,1990-005H,2026-07-11T18:46:42.898080,14.39939750,.0010036,98.2947,249.6322,184.0946,176.0162,0,U,20443,999,91066,.47238847E-4,.106E-5,0
DELTA 2 R/B(1),1990-008B,2026-07-11T00:34:04.552320,15.72953494,.00608884,35.6001,75.7228,336.6786,23.1198,0,U,20453,999,94545,.49420162E-3,.79035E-3,0
